NOAA 1 [-]              
1 04793U 70106A   20357.79943774 -.00000047  00000-0 -14678-4 0  9997
2 04793 101.6347  62.5585 0031348 294.6611 202.5960 12.53997383290180
NOAA 2 (ITOS-D) [-]     
1 06235U 72082A   20358.18060400 -.00000018  00000-0  17588-3 0  9994
2 06235 101.8805 327.6919 0004312  32.3133 339.1930 12.53130978204398
NOAA 3 [-]              
1 06920U 73086A   20357.46878984 -.00000020  00000-0  19298-3 0  9997
2 06920 102.1341 328.0016 0006149 211.4495 262.4047 12.40341320133593
NOAA 4 [-]              
1 07529U 74089A   20357.46861280 -.00000024  00000-0  13699-3 0  9991
2 07529 101.8381 326.2364 0009319  62.7933  48.0044 12.53146746108654
NOAA 5 [-]              
1 09057U 76077A   20357.48218772 -.00000020  00000-0  18934-3 0  9995
2 09057 102.0168 322.0910 0010216  59.8223  58.5601 12.37756466  6689
TIROS N [-]             
1 11060U 78096A   20358.12401989  .00000021  00000-0  31176-4 0  9995
2 11060  98.7155  52.9157 0009625 258.5793 101.4302 14.18290145395110
NOAA 6 [-]              
1 11416U 79057A   20357.61368264  .00000047  00000-0  33243-4 0  9994
2 11416  98.6633 356.6202 0011277  60.1807 300.0497 14.33609027164092
NOAA 7 [-]              
1 12553U 81059A   20357.33757872 -.00000019  00000-0  13767-4 0  9997
2 12553  99.0681  21.8684 0010995 211.7057 148.3456 14.17286201 41005
NOAA 8 [-]              
1 13923U 83022A   20357.45721480  .00000019  00000-0  25111-4 0  9995
2 13923  98.6383 340.6440 0015179 359.9224   0.1953 14.28720552965010
NOAA 9 [-]              
1 15427U 84123A   20357.82155021  .00000007  00000-0  26359-4 0  9994
2 15427  98.9693 313.0964 0013829 262.1151 152.0545 14.16116841860180
NOAA 10 [-]             
1 16969U 86073A   20357.48127521  .00000028  00000-0  28570-4 0  9998
2 16969  98.5183 344.2629 0013313 101.4329  52.8610 14.28118258783479
NOAA 11 [-]             
1 19531U 88089A   20357.44783433 -.00000018  00000-0  11881-4 0  9998
2 19531  98.4063   6.2075 0010214 305.1633  54.8584 14.15264985664151
NOAA 12 [-]             
1 21263U 91032A   20357.44071885  .00000004  00000-0  19475-4 0  9997
2 21263  98.5049   1.9085 0014593 123.0881 237.1702 14.25928359539488
NOAA 13 [-]             
1 22739U 93050A   20358.01694955  .00000014  00000-0  29408-4 0  9999
2 22739  98.4604 355.4418 0010625  94.6499 265.5888 14.12770918410840
NOAA 14 [-]             
1 23455U 94089A   20357.44757996 -.00000019  00000-0  11795-4 0  9995
2 23455  98.5184  40.5079 0010570  82.5735 277.6640 14.14154049340107
NOAA 15 [B]             
1 25338U 98030A   20358.11187375  .00000033  00000-0  32479-4 0  9997
2 25338  98.7009  22.0470 0011392  75.9160 284.3285 14.26005145176111
NOAA 16 [-]             
1 26536U 00055A   20357.44986616 -.00000018  00000-0  13145-4 0  9991
2 26536  98.7126  61.8315 0009477 271.3218  88.6869 14.13266348340798
NOAA 17 [-]             
1 27453U 02032A   20358.10353031  .00000022  00000-0  27992-4 0  9999
2 27453  98.6083 300.7365 0012585  50.7145 309.5149 14.25082536961771
NOAA 18 [B]             
1 28654U 05018A   20358.14722917  .00000087  00000-0  71497-4 0  9997
2 28654  99.0202  56.1078 0015005  61.9377 298.3310 14.12566748803641
NOAA 19 [+]             
1 33591U 09005A   20358.16518174  .00000039  00000-0  46524-4 0  9993
2 33591  99.1935   8.4100 0013065 266.8393  93.1283 14.12445079612039
SUOMI NPP [+]           
1 37849U 11061A   20358.16994340  .00000020  00000-0  29982-4 0  9990
2 37849  98.7210 293.3519 0001593  84.8425  27.4059 14.19545460474394
NOAA 20 [+]             
1 43013U 17073A   20358.11298825  .00000001  00000-0  21257-4 0  9995
2 43013  98.7375 293.2769 0001142 100.0257 260.1048 14.19545746160423
